GLOBALSTAR M084         
1 38040U 11080A   25299.93709726 -.00000092  00000+0  68012-4 0  9997
2 38040  52.0037   7.3793 0000252  75.4740  96.3144 12.62264445639303
GLOBALSTAR M080         
1 38041U 11080B   25299.90851606 -.00000090  00000+0  74405-4 0  9991
2 38041  52.0088   9.1043 0000950 106.6542  64.4891 12.62269896639423
GLOBALSTAR M082         
1 38042U 11080C   25299.84457817 -.00000083  00000+0  11502-3 0  9991
2 38042  52.0087 324.7758 0000661 104.6118  66.2625 12.62264243640123
GLOBALSTAR M092         
1 38043U 11080D   25299.81843206 -.00000093  00000+0  60006-4 0  9995
2 38043  52.0094  55.2359 0000706 105.3100  65.8712 12.62267310638570
GLOBALSTAR M090         
1 38044U 11080E   25299.99481211 -.00000082  00000+0  12207-3 0  9996
2 38044  52.0136 318.1994 0000346 111.2009 261.7873 12.62263460640264
GLOBALSTAR M086         
1 38045U 11080F   25299.81702550 -.00000087  00000+0  91172-4 0  9994
2 38045  51.9908 319.0499 0000667 244.4789 287.0301 12.62278583640180
GLOBALSTAR M097         
1 39072U 13005A   25299.88611030 -.00000078  00000+0  14595-3 0  9996
2 39072  52.0042 233.5253 0000521  76.9637 283.1288 12.62266813587442
GLOBALSTAR M093         
1 39073U 13005B   25299.93929952 -.00000075  00000+0  15835-3 0  9993
2 39073  52.0101 226.6225 0000555  97.0338 263.0592 12.62265700587405
